[{"OBJECT_NAME":"STARLINK-4608","OBJECT_ID":"2022-104AK","EPOCH":"2026-03-09T17:49:33.021984","MEAN_MOTION":15.08836947,"ECCENTRICITY":0.00013691,"INCLINATION":53.2167,"RA_OF_ASC_NODE":233.8378,"ARG_OF_PERICENTER":88.8509,"MEAN_ANOMALY":271.264,"EPHEMERIS_TYPE":0,"CLASSIFICATION_TYPE":"U","NORAD_CAT_ID":53621,"ELEMENT_SET_NO":999,"REV_AT_EPOCH":19564,"BSTAR":3.7606891e-5,"MEAN_MOTION_DOT":3.11e-6,"MEAN_MOTION_DDOT":0},{"OBJECT_NAME":"OBJECT H","OBJECT_ID":"2025-292H","EPOCH":"2026-03-09T22:24:53.558208","MEAN_MOTION":15.06373042,"ECCENTRICITY":0.00142604,"INCLINATION":97.6442,"RA_OF_ASC_NODE":145.7846,"ARG_OF_PERICENTER":348.9217,"MEAN_ANOMALY":11.1694,"EPHEMERIS_TYPE":0,"CLASSIFICATION_TYPE":"U","NORAD_CAT_ID":67000,"ELEMENT_SET_NO":999,"REV_AT_EPOCH":1338,"BSTAR":0.0005462937,"MEAN_MOTION_DOT":8.001e-5,"MEAN_MOTION_DDOT":0}]
